{
  "type": "FeatureCollection",
  "name": "Gournay Norman holdings overlay v5 source-informed",
  "metadata": {
    "purpose": "Source-informed interpretive overlay for visual review on the ancestor map.",
    "coordinate_order": "[longitude, latitude]",
    "source_patchset": "research/geo/gournay_norman_holdings_overlay_v5_master_patchset_2026-05-07.md",
    "not_cadastral": true,
    "display_policy": "Major interpretive holdings groups remain visible by default; southern boundary-control context is available but default-off after review.",
    "unresolved_conde_names": [
      {
        "name": "Raincourt",
        "status": "unresolved",
        "notes": "No confident modern identification found. Do not map separately."
      },
      {
        "name": "Royay",
        "status": "unresolved",
        "candidate_forms": [
          "Rosay",
          "Rosoy",
          "Roy-Boissy",
          "Roye"
        ],
        "notes": "No confident match. Do not map separately."
      },
      {
        "name": "Torchy",
        "status": "unresolved",
        "candidate_forms": [
          "Torcy",
          "Torchy"
        ],
        "candidate_leads": [
          "Ferme de Torchy near Cuy-Saint-Fiacre",
          "Fontenay-Torcy / Torchy forms"
        ],
        "notes": "Do not map separately yet."
      },
      {
        "name": "Saint-Sanson sous le Rain",
        "status": "unresolved",
        "candidate_forms": [
          "Saint-Samson-la-Poterie",
          "Hericourt-Saint-Samson / Hericourt-sur-Therain"
        ],
        "notes": "Do not map separately yet."
      },
      {
        "name": "Hincourt / Haincourt",
        "status": "partly unresolved",
        "notes": "Track as a Saint-Quentin / Beaulevrier cluster note, not a separate map point yet."
      }
    ]
  },
  "features": [
    {
      "type": "Feature",
      "id": "older_gournay_core_repo",
      "properties": {
        "id": "older_gournay_core_repo",
        "name": "Older Gournay core",
        "feature_type": "reconstructed_polygon",
        "display_group": "older_gournay_core",
        "display_default": true,
        "certainty": "medium-low",
        "historical_basis": "Existing repo reconstruction of the older Gournay core around Gournay-en-Bray and the Epte frontier.",
        "interpretation_note": "Approximate contextual reconstruction, not a surveyed medieval boundary.",
        "source_urls": [
          "research/geo/Hugh_initial_analysis/hugh_de_gournay_reconstructed_holdings.geojson",
          "research/geo/Hugh_initial_analysis/hugh_de_gournay_reconstruction_notes.json"
        ],
        "buffer_km": null,
        "source_iterations": [
          "v1",
          "v2",
          "v3",
          "v4",
          "v5"
        ],
        "style": {
          "color": "#7a4b16",
          "weight": 2,
          "opacity": 0.75,
          "fillColor": "#b77724",
          "fillOpacity": 0.16,
          "dashArray": "4 4"
        }
      },
      "geometry": {
        "type": "Polygon",
        "coordinates": [
          [
            [
              1.69,
              49.555
            ],
            [
              1.685,
              49.47
            ],
            [
              1.76,
              49.47
            ],
            [
              1.75,
              49.555
            ],
            [
              1.69,
              49.555
            ]
          ]
        ]
      }
    },
    {
      "type": "Feature",
      "id": "beauvaisis_24_villages_repo",
      "properties": {
        "id": "beauvaisis_24_villages_repo",
        "name": "Beauvaisis acquisitions / Conquêts Hue de Gournay (repo reconstruction)",
        "feature_type": "reconstructed_polygon",
        "display_group": "beauvaisis_24_villages",
        "display_default": false,
        "certainty": "medium",
        "historical_basis": "Existing repo reconstruction from preserved Conquêts Hue de Gournay place-list and modern commune anchors.",
        "interpretation_note": "Superseded by v5 source-informed polygon because the earlier version risked excluding Ferrieres-en-Bray, Gancourt-Saint-Etienne, and related listed anchors.",
        "source_urls": [],
        "buffer_km": null,
        "source_iterations": [
          "v1",
          "v2",
          "v3",
          "v4",
          "v5"
        ],
        "style": {
          "color": "#596f2a",
          "weight": 2,
          "opacity": 0.8,
          "fillColor": "#9ab04a",
          "fillOpacity": 0.04,
          "dashArray": "3 6"
        },
        "deprecated_by": "beauvaisis_24_villages_revised_source_informed_v5",
        "status": "deprecated"
      },
      "geometry": {
        "type": "Polygon",
        "coordinates": [
          [
            [
              1.745,
              49.61
            ],
            [
              1.742,
              49.512
            ],
            [
              1.79,
              49.505
            ],
            [
              1.872,
              49.545
            ],
            [
              1.845,
              49.606
            ],
            [
              1.745,
              49.61
            ]
          ]
        ]
      }
    },
    {
      "type": "Feature",
      "id": "epte_frontier_line",
      "properties": {
        "id": "epte_frontier_line",
        "name": "Schematic Epte frontier line",
        "feature_type": "frontier_line",
        "display_group": "frontier_context",
        "display_default": true,
        "certainty": "low-medium",
        "historical_basis": "Existing repo schematic line for the Epte frontier.",
        "interpretation_note": "Schematic line for visual frontier context.",
        "source_urls": [],
        "buffer_km": null,
        "source_iterations": [
          "v1",
          "v2",
          "v3",
          "v4",
          "v5"
        ],
        "style": {
          "color": "#44606f",
          "weight": 2,
          "opacity": 0.64,
          "fillOpacity": 0,
          "dashArray": "7 5"
        }
      },
      "geometry": {
        "type": "LineString",
        "coordinates": [
          [
            1.715,
            49.6
          ],
          [
            1.708,
            49.548
          ],
          [
            1.724,
            49.521
          ],
          [
            1.725,
            49.483
          ],
          [
            1.705,
            49.44
          ]
        ]
      }
    },
    {
      "type": "Feature",
      "id": "beauvaisis_24_villages_revised_source_informed_v5",
      "properties": {
        "id": "beauvaisis_24_villages_revised_source_informed_v5",
        "name": "Beauvaisis acquisitions / Conquets Hue de Gournay - revised source-informed polygon v5",
        "feature_type": "reconstructed_polygon",
        "display_group": "beauvaisis_24_villages",
        "display_default": true,
        "certainty": "medium",
        "historical_basis": "ConDE list; Ferrieres official history; Gancourt municipal bulletin/local history; Saint-Quentin/Beaulevrier hameau and later-continuity evidence; Doudeauville Archives 76; Molagnies/Humermont local history; Hericourt locality evidence.",
        "interpretation_note": "Approximate polygon representing a customary-law / jurisdictional block, not a surveyed medieval boundary. It includes the strongest listed-place anchors without absorbing every neighboring Gournay-related institutional or dependency site.",
        "source_urls": [
          "https://pdn-lingua.unicaen.fr/coutumiers/conde/pesnelle_lighter.xml/pesnelle-lighter-beta-002-007.html",
          "https://www.ferrieres-en-bray.fr/page/la-commune/l-histoire-de-ferrieres/histoire-de-la-ville",
          "https://tourismedes4rivieresenbray.com/ferrieres-en-bray/",
          "https://gancourtsaintetienne.com/wp-content/uploads/2023/12/bm2023-1.pdf",
          "https://gancourtsaintetienne.com/2017/12/21/un-peu-dhistoire-de-notre-village/",
          "https://www.archivesdepartementales76.net/archive/catalogue/communes76/doudeauville/n%3A168",
          "https://tourismedes4rivieresenbray.com/molagnies/"
        ],
        "buffer_km": null,
        "source_iterations": [
          "v1",
          "v2",
          "v3",
          "v4",
          "v5"
        ],
        "style": {
          "color": "#596f2a",
          "weight": 2,
          "opacity": 0.8,
          "fillColor": "#9ab04a",
          "fillOpacity": 0.16
        },
        "boundary_complexity_note": "Modern boundaries near Doudeauville, Villers-Vermont, Haussez, and Ferme d'Obus preserve irregularities tied to older Bray / Beauvaisis / diocesan geography; polygon remains schematic."
      },
      "geometry": {
        "type": "Polygon",
        "coordinates": [
          [
            [
              1.704,
              49.573
            ],
            [
              1.708,
              49.548
            ],
            [
              1.722,
              49.522
            ],
            [
              1.748,
              49.482
            ],
            [
              1.755,
              49.521
            ],
            [
              1.79,
              49.505
            ],
            [
              1.872,
              49.545
            ],
            [
              1.846,
              49.6
            ],
            [
              1.761,
              49.583
            ],
            [
              1.704,
              49.573
            ]
          ]
        ]
      }
    },
    {
      "type": "Feature",
      "id": "beauvaisis_24_villages_expanded_3km_v5",
      "properties": {
        "id": "beauvaisis_24_villages_expanded_3km_v5",
        "name": "Expanded Conquets Hue de Gournay / 24-village land context - 3 km buffer",
        "feature_type": "expanded_buffer",
        "display_group": "beauvaisis_24_villages",
        "display_default": true,
        "certainty": "low-medium",
        "historical_basis": "Interpretive buffer around the revised 24-village polygon to acknowledge that listed settlements represent wider village lands, fields, woods, rights, and dependent hameaux.",
        "interpretation_note": "Useful for visualizing likely land around the villages; not a cadastral reconstruction.",
        "source_urls": [
          "https://pdn-lingua.unicaen.fr/coutumiers/conde/pesnelle_lighter.xml/pesnelle-lighter-beta-002-007.html"
        ],
        "buffer_km": 3,
        "source_iterations": [
          "v1",
          "v2",
          "v3",
          "v4",
          "v5"
        ],
        "style": {
          "color": "#596f2a",
          "weight": 1,
          "opacity": 0.8,
          "fillColor": "#9ab04a",
          "fillOpacity": 0.09,
          "dashArray": "6 4"
        }
      },
      "geometry": {
        "type": "Polygon",
        "coordinates": [
          [
            [
              1.670801,
              49.589192
            ],
            [
              1.666946,
              49.552075
            ],
            [
              1.687715,
              49.50679
            ],
            [
              1.739515,
              49.455619
            ],
            [
              1.740278,
              49.495801
            ],
            [
              1.805302,
              49.479947
            ],
            [
              1.913494,
              49.546145
            ],
            [
              1.873468,
              49.620213
            ],
            [
              1.756847,
              49.609814
            ],
            [
              1.670801,
              49.589192
            ]
          ]
        ]
      }
    },
    {
      "type": "Feature",
      "id": "ferrieres_auchy_laudencourt_hardencourt_foret_cluster",
      "properties": {
        "id": "ferrieres_auchy_laudencourt_hardencourt_foret_cluster",
        "name": "Ferrieres / Auchy / Laudencourt / Hardencourt / Le Foret cluster",
        "feature_type": "subcluster_anchor",
        "display_group": "beauvaisis_24_villages",
        "display_default": true,
        "certainty": "high",
        "historical_basis": "ConDE list plus Ferrieres official history; modern Ferrieres locality/street data preserve Auchy, Laudencourt, Hardencourt, Le Foret, and related local names.",
        "interpretation_note": "Anchor/metadata point only; do not read as a separate surveyed polygon.",
        "source_urls": [
          "https://www.ferrieres-en-bray.fr/page/la-commune/l-histoire-de-ferrieres/histoire-de-la-ville",
          "https://tourismedes4rivieresenbray.com/ferrieres-en-bray/",
          "https://www.archivesdepartementales76.net/archive/catalogue/communes76/ferrires-en-bray/n%3A168"
        ],
        "buffer_km": null,
        "source_iterations": [
          "v1",
          "v2",
          "v3",
          "v4",
          "v5"
        ],
        "style": {
          "color": "#596f2a",
          "weight": 2,
          "opacity": 0.8,
          "fillColor": "#9ab04a",
          "fillOpacity": 0.16,
          "markerColor": "#596f2a"
        }
      },
      "geometry": {
        "type": "Point",
        "coordinates": [
          1.745918,
          49.48242
        ]
      }
    },
    {
      "type": "Feature",
      "id": "gancourt_boimont_subcluster",
      "properties": {
        "id": "gancourt_boimont_subcluster",
        "name": "Gancourt-Saint-Etienne / Boimont terroir subcluster",
        "feature_type": "subcluster_anchor",
        "display_group": "beauvaisis_24_villages",
        "display_default": true,
        "certainty": "high",
        "historical_basis": "ConDE lists Boymont terroir de Ganicourt; Gancourt local history says Gancourt was among the twenty-four conquests and depended on high justice of Gournay.",
        "interpretation_note": "Anchor/metadata point only; do not read as a separate surveyed polygon.",
        "source_urls": [
          "https://pdn-lingua.unicaen.fr/coutumiers/conde/pesnelle_lighter.xml/pesnelle-lighter-beta-002-007.html",
          "https://gancourtsaintetienne.com/wp-content/uploads/2023/12/bm2023-1.pdf"
        ],
        "buffer_km": null,
        "source_iterations": [
          "v1",
          "v2",
          "v3",
          "v4",
          "v5"
        ],
        "style": {
          "color": "#596f2a",
          "weight": 2,
          "opacity": 0.8,
          "fillColor": "#9ab04a",
          "fillOpacity": 0.16,
          "markerColor": "#596f2a"
        }
      },
      "geometry": {
        "type": "Point",
        "coordinates": [
          1.708,
          49.548
        ]
      }
    },
    {
      "type": "Feature",
      "id": "saint_quentin_beaulevrier_hincourt_sully_cluster",
      "properties": {
        "id": "saint_quentin_beaulevrier_hincourt_sully_cluster",
        "name": "Saint-Quentin / Beaulevrier / Hincourt / Sully cluster",
        "feature_type": "subcluster_anchor",
        "display_group": "beauvaisis_24_villages",
        "display_default": true,
        "certainty": "medium-high",
        "historical_basis": "ConDE lists S. Quentin and Beaulevrier/Hincourt; modern Saint-Quentin-des-Pres includes Mothois, Hyancourt, Beaulevrier bas, Beaulevrier haut, and Equennes; later local history places Beaulevrier under the comte de Gournay-en-Bray.",
        "interpretation_note": "Anchor/metadata point only; do not read as a separate surveyed polygon.",
        "source_urls": [
          "https://pdn-lingua.unicaen.fr/coutumiers/conde/pesnelle_lighter.xml/pesnelle-lighter-beta-002-007.html",
          "https://fr.wikipedia.org/wiki/Saint-Quentin-des-Pr%C3%A9s",
          "https://www.villes-de-france.eu/ville-saint-quentin-des-pres/",
          "https://www.annuaire-mairie.fr/rue-saint-quentin-des-pres.html"
        ],
        "buffer_km": null,
        "source_iterations": [
          "v1",
          "v2",
          "v3",
          "v4",
          "v5"
        ],
        "style": {
          "color": "#596f2a",
          "weight": 2,
          "opacity": 0.8,
          "fillColor": "#9ab04a",
          "fillOpacity": 0.16,
          "markerColor": "#596f2a"
        }
      },
      "geometry": {
        "type": "Point",
        "coordinates": [
          1.755,
          49.5211
        ]
      }
    },
    {
      "type": "Feature",
      "id": "doudeauville_listed_anchor",
      "properties": {
        "id": "doudeauville_listed_anchor",
        "name": "Doudeauville listed anchor",
        "feature_type": "subcluster_anchor",
        "display_group": "beauvaisis_24_villages",
        "display_default": true,
        "certainty": "medium-high",
        "historical_basis": "ConDE lists Doudeauville; Archives 76 gives medieval forms including Dudelvilla in 1152 and places Doudeauville in the canton of Gournay-en-Bray.",
        "interpretation_note": "Anchor/metadata point only; do not read as a separate surveyed polygon.",
        "source_urls": [
          "https://www.archivesdepartementales76.net/archive/catalogue/communes76/doudeauville/n%3A168"
        ],
        "buffer_km": null,
        "source_iterations": [
          "v1",
          "v2",
          "v3",
          "v4",
          "v5"
        ],
        "style": {
          "color": "#596f2a",
          "weight": 2,
          "opacity": 0.8,
          "fillColor": "#9ab04a",
          "fillOpacity": 0.16,
          "markerColor": "#596f2a"
        }
      },
      "geometry": {
        "type": "Point",
        "coordinates": [
          1.7056,
          49.5731
        ]
      }
    },
    {
      "type": "Feature",
      "id": "molagnies_humermont_anchor_pair",
      "properties": {
        "id": "molagnies_humermont_anchor_pair",
        "name": "Molagnies / Humermont anchor pair",
        "feature_type": "subcluster_anchor",
        "display_group": "beauvaisis_24_villages",
        "display_default": true,
        "certainty": "medium-high",
        "historical_basis": "ConDE lists Moullonguies and Humermont; modern local history identifies Humermont as a Molagnies hameau / church / manorial context.",
        "interpretation_note": "Anchor/metadata point only; do not read as a separate surveyed polygon.",
        "source_urls": [
          "https://tourismedes4rivieresenbray.com/molagnies/",
          "https://www.archivesdepartementales76.net/archive/catalogue/communes76/molagnies/n%3A168"
        ],
        "buffer_km": null,
        "source_iterations": [
          "v1",
          "v2",
          "v3",
          "v4",
          "v5"
        ],
        "style": {
          "color": "#596f2a",
          "weight": 2,
          "opacity": 0.8,
          "fillColor": "#9ab04a",
          "fillOpacity": 0.16,
          "markerColor": "#596f2a"
        }
      },
      "geometry": {
        "type": "Point",
        "coordinates": [
          1.7218,
          49.5217
        ]
      }
    },
    {
      "type": "Feature",
      "id": "hericourt_beaumont_houssoye_subcluster",
      "properties": {
        "id": "hericourt_beaumont_houssoye_subcluster",
        "name": "Hericourt / Beaumont / La Houssoye subcluster",
        "feature_type": "subcluster_anchor",
        "display_group": "beauvaisis_24_villages",
        "display_default": true,
        "certainty": "medium-high",
        "historical_basis": "ConDE lists Hericourt and the hameaux Beaumont and La Haus-saye. Modern Hericourt-sur-Therain provides the locality anchor.",
        "interpretation_note": "Anchor/metadata point only; do not read as a separate surveyed polygon.",
        "source_urls": [
          "https://fr.wikipedia.org/wiki/H%C3%A9ricourt-sur-Th%C3%A9rain",
          "https://www.annuaire-mairie.fr/mairie-hericourt-sur-therain.html"
        ],
        "buffer_km": null,
        "source_iterations": [
          "v1",
          "v2",
          "v3",
          "v4",
          "v5"
        ],
        "style": {
          "color": "#596f2a",
          "weight": 2,
          "opacity": 0.8,
          "fillColor": "#9ab04a",
          "fillOpacity": 0.16,
          "markerColor": "#596f2a"
        }
      },
      "geometry": {
        "type": "Point",
        "coordinates": [
          1.7614,
          49.5831
        ]
      }
    },
    {
      "type": "Feature",
      "id": "songeons_loueuse_anchor_pair",
      "properties": {
        "id": "songeons_loueuse_anchor_pair",
        "name": "Songeons / Loueuse eastern-northeastern anchors",
        "feature_type": "subcluster_anchor",
        "display_group": "beauvaisis_24_villages",
        "display_default": true,
        "certainty": "medium-high",
        "historical_basis": "ConDE lists Songeons and Loyenses / Loueuse; these help define the eastern and northeastern edge of the 24-village polygon.",
        "interpretation_note": "Anchor/metadata point only; do not read as a separate surveyed polygon.",
        "source_urls": [
          "https://pdn-lingua.unicaen.fr/coutumiers/conde/pesnelle_lighter.xml/pesnelle-lighter-beta-002-007.html"
        ],
        "buffer_km": null,
        "source_iterations": [
          "v1",
          "v2",
          "v3",
          "v4",
          "v5"
        ],
        "style": {
          "color": "#596f2a",
          "weight": 2,
          "opacity": 0.8,
          "fillColor": "#9ab04a",
          "fillOpacity": 0.16,
          "markerColor": "#596f2a"
        }
      },
      "geometry": {
        "type": "Point",
        "coordinates": [
          1.85,
          49.56
        ]
      }
    },
    {
      "type": "Feature",
      "id": "anchor_haucourt_northern_gournay_honor_context",
      "properties": {
        "id": "anchor_haucourt_northern_gournay_honor_context",
        "name": "Haucourt",
        "feature_type": "overlay_place_anchor",
        "display_group": "northern_gournay_honor_context",
        "display_default": true,
        "certainty": "medium",
        "historical_basis": "Pierre Bauduin places the Haucourt lineage on lands principally dependent on the honor of Gournay and describes Haucourt's fief as dependent on Gaillefontaine.",
        "interpretation_note": "Anchor point explaining the northern Gournay-honor context corridor. This is contextual dependency geography, not a direct G30-G37 landholding point.",
        "source_urls": [
          "https://shs.cairn.info/revue-histoire-et-societes-rurales-2001-1-page-131?lang=fr"
        ],
        "buffer_km": null,
        "source_iterations": [
          "v1",
          "v2",
          "v3",
          "v4",
          "v5"
        ],
        "style": {
          "color": "#446b58",
          "weight": 2,
          "opacity": 0.5,
          "fillColor": "#6d9a81",
          "fillOpacity": 0.06,
          "dashArray": "6 5",
          "markerColor": "#446b58"
        },
        "anchor_role": "northern Gournay-honor dependency context"
      },
      "geometry": {
        "type": "Point",
        "coordinates": [
          1.6606,
          49.6414
        ]
      }
    },
    {
      "type": "Feature",
      "id": "anchor_les_noyers_gaillefontaine_vavassory",
      "properties": {
        "id": "anchor_les_noyers_gaillefontaine_vavassory",
        "name": "Les Noyers / Gaillefontaine vavassory",
        "feature_type": "overlay_place_anchor",
        "display_group": "northern_gournay_honor_context",
        "display_default": true,
        "certainty": "medium-low",
        "historical_basis": "Bauduin notes a vavassory at Les Noyers on the present commune of Gaillefontaine held from the lord of Gournay.",
        "interpretation_note": "Use as an explanatory anchor for the northern context corridor. Refine coordinate if a stronger Les Noyers-specific point is found.",
        "source_urls": [
          "https://shs.cairn.info/revue-histoire-et-societes-rurales-2001-1-page-131?lang=fr",
          "https://www.mairiegaillefontaine.fr/pages/decouvrir-et-bouger/histoire/historique.html"
        ],
        "buffer_km": null,
        "source_iterations": [
          "v1",
          "v2",
          "v3",
          "v4",
          "v5"
        ],
        "style": {
          "color": "#446b58",
          "weight": 2,
          "opacity": 0.5,
          "fillColor": "#6d9a81",
          "fillOpacity": 0.06,
          "dashArray": "6 5",
          "markerColor": "#446b58"
        },
        "anchor_role": "Gournay-honor dependency / vavassory context",
        "coordinate_precision": "approximate"
      },
      "geometry": {
        "type": "Point",
        "coordinates": [
          1.6259,
          49.6505
        ]
      }
    },
    {
      "type": "Feature",
      "id": "anchor_criquiers_northern_gournay_honor_context",
      "properties": {
        "id": "anchor_criquiers_northern_gournay_honor_context",
        "name": "Criquiers",
        "feature_type": "overlay_place_anchor",
        "display_group": "northern_gournay_honor_context",
        "display_default": true,
        "certainty": "medium-low",
        "historical_basis": "Criquiers belongs to the northern La Montagne / Gaillefontaine / Haucourt context discussed by Bauduin and appears in Archives 76 topography.",
        "interpretation_note": "Context anchor for the northern corridor. Do not treat as a direct G30-G37 holding.",
        "source_urls": [
          "https://shs.cairn.info/revue-histoire-et-societes-rurales-2001-1-page-131?lang=fr",
          "https://www.archivesdepartementales76.net/archive/catalogue/communes76/criquiers/n%3A168"
        ],
        "buffer_km": null,
        "source_iterations": [
          "v1",
          "v2",
          "v3",
          "v4",
          "v5"
        ],
        "style": {
          "color": "#446b58",
          "weight": 2,
          "opacity": 0.5,
          "fillColor": "#6d9a81",
          "fillOpacity": 0.06,
          "dashArray": "6 5",
          "markerColor": "#446b58"
        },
        "anchor_role": "northern frontier / institutional context"
      },
      "geometry": {
        "type": "Point",
        "coordinates": [
          1.7067,
          49.6753
        ]
      }
    },
    {
      "type": "Feature",
      "id": "anchor_massy_bec_endowment_candidate",
      "properties": {
        "id": "anchor_massy_bec_endowment_candidate",
        "name": "Massy",
        "feature_type": "overlay_place_anchor",
        "display_group": "g33_bec_endowment_cluster",
        "display_default": true,
        "certainty": "medium",
        "historical_basis": "Archives 76 Massy topography includes medieval Gurney-linked Massy forms, tithe/church/fief language, and later châtellenie de La Ferté-en-Bray references.",
        "interpretation_note": "Anchor point explaining the Massy / Morimont Bec-endowment candidate lobe. Do not merge into the Conquets Hue de Gournay polygon.",
        "source_urls": [
          "https://www.archivesdepartementales76.net/archive/catalogue/communes76/massy/n%3A168"
        ],
        "buffer_km": null,
        "source_iterations": [
          "v1",
          "v2",
          "v3",
          "v4",
          "v5"
        ],
        "style": {
          "color": "#7a5963",
          "weight": 2,
          "opacity": 0.52,
          "fillColor": "#b17b86",
          "fillOpacity": 0.065,
          "dashArray": "5 5",
          "markerColor": "#7a5963"
        },
        "anchor_role": "Bec / Gournay endowment candidate"
      },
      "geometry": {
        "type": "Point",
        "coordinates": [
          1.399,
          49.69
        ]
      }
    },
    {
      "type": "Feature",
      "id": "anchor_morimont_esclavelles_bec_endowment_candidate",
      "properties": {
        "id": "anchor_morimont_esclavelles_bec_endowment_candidate",
        "name": "Morimont / Esclavelles",
        "feature_type": "overlay_place_anchor",
        "display_group": "g33_bec_endowment_cluster",
        "display_default": true,
        "certainty": "medium-low",
        "historical_basis": "Archives 76 Esclavelles topography anchors Morimont / Mont-Remond across Esclavelles and Massy.",
        "interpretation_note": "Candidate/context anchor for the Massy-Morimont endowment lobe. Refine coordinate if a precise Morimont point is found.",
        "source_urls": [
          "https://www.archivesdepartementales76.net/archive/catalogue/communes76/esclavelles"
        ],
        "buffer_km": null,
        "source_iterations": [
          "v1",
          "v2",
          "v3",
          "v4",
          "v5"
        ],
        "style": {
          "color": "#7a5963",
          "weight": 2,
          "opacity": 0.52,
          "fillColor": "#b17b86",
          "fillOpacity": 0.065,
          "dashArray": "5 5",
          "markerColor": "#7a5963"
        },
        "anchor_role": "Massy / Morimont endowment context",
        "coordinate_precision": "approximate"
      },
      "geometry": {
        "type": "Point",
        "coordinates": [
          1.405,
          49.705
        ]
      }
    },
    {
      "type": "Feature",
      "id": "anchor_avesnes_en_bray_gournay_dependency_context",
      "properties": {
        "id": "anchor_avesnes_en_bray_gournay_dependency_context",
        "name": "Avesnes-en-Bray",
        "feature_type": "overlay_place_anchor",
        "display_group": "gournay_western_dependency_context",
        "display_default": true,
        "certainty": "medium-high",
        "historical_basis": "Archives 76 Avesnes-en-Bray topography preserves 1503 fief language tying Avesnes to the full fief of Ferrières and the châtellenie of Gournay.",
        "interpretation_note": "Anchor point explaining the Avesnes / Ferrieres western dependency context. This should remain separate from the Conquets Hue de Gournay polygon.",
        "source_urls": [
          "https://www.archivesdepartementales76.net/archive/catalogue/communes76/avesnes-en-bray/n%3A168"
        ],
        "buffer_km": null,
        "source_iterations": [
          "v1",
          "v2",
          "v3",
          "v4",
          "v5"
        ],
        "style": {
          "color": "#6b5a2a",
          "weight": 2,
          "opacity": 0.58,
          "fillColor": "#b7a15a",
          "fillOpacity": 0.08,
          "dashArray": "6 4",
          "markerColor": "#6b5a2a"
        },
        "anchor_role": "western Gournay dependency context"
      },
      "geometry": {
        "type": "Point",
        "coordinates": [
          1.6733,
          49.4697
        ]
      }
    },
    {
      "type": "Feature",
      "id": "anchor_bremontier_merval_bellozanne_institutional",
      "properties": {
        "id": "anchor_bremontier_merval_bellozanne_institutional",
        "name": "Brémontier-Merval / Bellozanne",
        "feature_type": "overlay_place_anchor",
        "display_group": "later_gournay_institutional",
        "display_default": true,
        "certainty": "medium",
        "historical_basis": "Brémontier-Merval official history ties Bellozanne to Hugues V de Gournay and to the later administration of Bellozanne, Brémontier, Merval, and Elbeuf-en-Bray.",
        "interpretation_note": "Institutional / senior-collateral Gournay geography. Keep separate from direct G30-G37 holdings and the Conquets polygon.",
        "source_urls": [
          "https://www.bremontier-merval.fr/vie-culturelle/histoire",
          "https://fr.wikipedia.org/wiki/Abbaye_Notre-Dame_de_Bellozanne"
        ],
        "buffer_km": null,
        "source_iterations": [
          "v1",
          "v2",
          "v3",
          "v4",
          "v5"
        ],
        "style": {
          "color": "#5b6f78",
          "weight": 2,
          "opacity": 0.48,
          "fillColor": "#8ba5ad",
          "fillOpacity": 0.05,
          "dashArray": "4 6",
          "markerColor": "#5b6f78"
        },
        "anchor_role": "later Gournay institutional geography",
        "future_default_after_review": false
      },
      "geometry": {
        "type": "Point",
        "coordinates": [
          1.6029,
          49.514
        ]
      }
    },
    {
      "type": "Feature",
      "id": "anchor_elbeuf_en_bray_bellozanne_institutional",
      "properties": {
        "id": "anchor_elbeuf_en_bray_bellozanne_institutional",
        "name": "Elbeuf-en-Bray",
        "feature_type": "overlay_place_anchor",
        "display_group": "later_gournay_institutional",
        "display_default": true,
        "certainty": "medium",
        "historical_basis": "Elbeuf-en-Bray tourism history says parish revenues were entrusted to Bellozanne in the 12th century.",
        "interpretation_note": "Institutional / later-collateral geography. Keep visually distinct from direct landholding layers.",
        "source_urls": [
          "https://tourismedes4rivieresenbray.com/elbeuf-en-bray/"
        ],
        "buffer_km": null,
        "source_iterations": [
          "v1",
          "v2",
          "v3",
          "v4",
          "v5"
        ],
        "style": {
          "color": "#5b6f78",
          "weight": 2,
          "opacity": 0.48,
          "fillColor": "#8ba5ad",
          "fillOpacity": 0.05,
          "dashArray": "4 6",
          "markerColor": "#5b6f78"
        },
        "anchor_role": "Bellozanne / institutional geography",
        "future_default_after_review": false
      },
      "geometry": {
        "type": "Point",
        "coordinates": [
          1.631,
          49.498
        ]
      }
    },
    {
      "type": "Feature",
      "id": "anchor_beaubec_la_rosiere_institutional",
      "properties": {
        "id": "anchor_beaubec_la_rosiere_institutional",
        "name": "Beaubec-la-Rosière",
        "feature_type": "overlay_place_anchor",
        "display_group": "later_gournay_institutional",
        "display_default": true,
        "certainty": "medium-low",
        "historical_basis": "Beaubec-la-Rosière is associated with a later Gournay institutional foundation, but should remain a later/collateral context anchor.",
        "interpretation_note": "Do not merge into direct G30-G37 holdings or the Conquets polygon.",
        "source_urls": [
          "https://fr.wikipedia.org/wiki/Beaubec-la-Rosi%C3%A8re"
        ],
        "buffer_km": null,
        "source_iterations": [
          "v1",
          "v2",
          "v3",
          "v4",
          "v5"
        ],
        "style": {
          "color": "#5b6f78",
          "weight": 2,
          "opacity": 0.48,
          "fillColor": "#8ba5ad",
          "fillOpacity": 0.05,
          "dashArray": "4 6",
          "markerColor": "#5b6f78"
        },
        "anchor_role": "later Gournay institutional geography",
        "future_default_after_review": false
      },
      "geometry": {
        "type": "Point",
        "coordinates": [
          1.55,
          49.62
        ]
      }
    },
    {
      "type": "Feature",
      "id": "anchor_cuy_saint_fiacre_quesnoy_gournay_dependency",
      "properties": {
        "id": "anchor_cuy_saint_fiacre_quesnoy_gournay_dependency",
        "name": "Cuy-Saint-Fiacre / Quesnoy",
        "feature_type": "overlay_place_anchor",
        "display_group": "gournay_chatelainie_dependencies",
        "display_default": true,
        "certainty": "medium-high",
        "historical_basis": "Cuy-Saint-Fiacre history says the hameau of Quesnoy was the chief manor of a full fief of haubert dependent on the châtellenie of Gournay.",
        "interpretation_note": "Connector between the Gournay core and the 24-village edge. Do not merge into the Conquets Hue de Gournay polygon.",
        "source_urls": [
          "https://fr.wikipedia.org/wiki/Cuy-Saint-Fiacre",
          "https://seine76.fr/communes/communes_result.php?var=CUY-SAINT-FIACRE"
        ],
        "buffer_km": null,
        "source_iterations": [
          "v1",
          "v2",
          "v3",
          "v4",
          "v5"
        ],
        "style": {
          "color": "#76518c",
          "weight": 2,
          "opacity": 0.64,
          "fillColor": "#8f6aa5",
          "fillOpacity": 0.1,
          "markerColor": "#76518c"
        },
        "anchor_role": "Gournay châtellenie dependency connector"
      },
      "geometry": {
        "type": "Point",
        "coordinates": [
          1.6986,
          49.5133
        ]
      }
    },
    {
      "type": "Feature",
      "id": "cuy_saint_fiacre_quesnoy_gournay_dependency",
      "properties": {
        "id": "cuy_saint_fiacre_quesnoy_gournay_dependency",
        "name": "Cuy-Saint-Fiacre / Quesnoy Gournay chatellenie dependency",
        "feature_type": "dependency_buffer",
        "display_group": "gournay_chatelainie_dependencies",
        "display_default": true,
        "certainty": "medium",
        "historical_basis": "A full fief of haubert at Quesnoy depended on the chatellenie of Gournay; the hameau still exists and the parish church has 12th-century context.",
        "interpretation_note": "Connector / dependency feature between the Gournay core and the 24-village edge. Do not merge into the Conquets polygon.",
        "source_urls": [
          "https://fr.wikipedia.org/wiki/Cuy-Saint-Fiacre",
          "https://seine76.fr/communes/communes_result.php?var=CUY-SAINT-FIACRE"
        ],
        "buffer_km": 2.5,
        "source_iterations": [
          "v1",
          "v2",
          "v3",
          "v4",
          "v5"
        ],
        "style": {
          "color": "#76518c",
          "weight": 2,
          "opacity": 0.64,
          "fillColor": "#8f6aa5",
          "fillOpacity": 0.1
        }
      },
      "geometry": {
        "type": "Polygon",
        "coordinates": [
          [
            [
              1.733189,
              49.5133
            ],
            [
              1.732893,
              49.516231
            ],
            [
              1.732011,
              49.519113
            ],
            [
              1.730556,
              49.521894
            ],
            [
              1.728555,
              49.524529
            ],
            [
              1.726041,
              49.526971
            ],
            [
              1.723058,
              49.52918
            ],
            [
              1.719657,
              49.531117
            ],
            [
              1.715895,
              49.532749
            ],
            [
              1.711837,
              49.534048
            ],
            [
              1.707552,
              49.534993
            ],
            [
              1.703115,
              49.535566
            ],
            [
              1.6986,
              49.535758
            ],
            [
              1.694085,
              49.535566
            ],
            [
              1.689648,
              49.534993
            ],
            [
              1.685363,
              49.534048
            ],
            [
              1.681305,
              49.532749
            ],
            [
              1.677543,
              49.531117
            ],
            [
              1.674142,
              49.52918
            ],
            [
              1.671159,
              49.526971
            ],
            [
              1.668645,
              49.524529
            ],
            [
              1.666644,
              49.521894
            ],
            [
              1.665189,
              49.519113
            ],
            [
              1.664307,
              49.516231
            ],
            [
              1.664011,
              49.5133
            ],
            [
              1.664307,
              49.510369
            ],
            [
              1.665189,
              49.507487
            ],
            [
              1.666644,
              49.504706
            ],
            [
              1.668645,
              49.502071
            ],
            [
              1.671159,
              49.499629
            ],
            [
              1.674142,
              49.49742
            ],
            [
              1.677543,
              49.495483
            ],
            [
              1.681305,
              49.493851
            ],
            [
              1.685363,
              49.492552
            ],
            [
              1.689648,
              49.491607
            ],
            [
              1.694085,
              49.491034
            ],
            [
              1.6986,
              49.490842
            ],
            [
              1.703115,
              49.491034
            ],
            [
              1.707552,
              49.491607
            ],
            [
              1.711837,
              49.492552
            ],
            [
              1.715895,
              49.493851
            ],
            [
              1.719657,
              49.495483
            ],
            [
              1.723058,
              49.49742
            ],
            [
              1.726041,
              49.499629
            ],
            [
              1.728555,
              49.502071
            ],
            [
              1.730556,
              49.504706
            ],
            [
              1.732011,
              49.507487
            ],
            [
              1.732893,
              49.510369
            ],
            [
              1.733189,
              49.5133
            ]
          ]
        ]
      }
    },
    {
      "type": "Feature",
      "id": "avesnes_ferrieres_gournay_dependency_context",
      "properties": {
        "id": "avesnes_ferrieres_gournay_dependency_context",
        "name": "Avesnes / Ferrieres Gournay dependency context",
        "feature_type": "dependency_context_buffer",
        "display_group": "gournay_western_dependency_context",
        "display_default": true,
        "certainty": "low-medium",
        "historical_basis": "Archives 76 Avesnes topography preserves 1503 fief language tying Avesnes to the full fief of Ferrieres and the chatellenie of Gournay.",
        "interpretation_note": "Western dependency context layer, not part of the Conquets Hue de Gournay polygon.",
        "source_urls": [
          "https://www.archivesdepartementales76.net/archive/catalogue/communes76/avesnes-en-bray/n%3A168",
          "https://www.archivesdepartementales76.net/archive/catalogue/communes76/ferrires-en-bray/n%3A168"
        ],
        "buffer_km": 3,
        "source_iterations": [
          "v1",
          "v2",
          "v3",
          "v4",
          "v5"
        ],
        "style": {
          "color": "#6b5a2a",
          "weight": 2,
          "opacity": 0.58,
          "fillColor": "#b7a15a",
          "fillOpacity": 0.08,
          "dashArray": "6 4"
        }
      },
      "geometry": {
        "type": "Polygon",
        "coordinates": [
          [
            [
              1.631823,
              49.4697
            ],
            [
              1.63262,
              49.464442
            ],
            [
              1.63498,
              49.459387
            ],
            [
              1.638813,
              49.454728
            ],
            [
              1.643971,
              49.450644
            ],
            [
              1.650257,
              49.447292
            ],
            [
              1.657427,
              49.444802
            ],
            [
              1.665208,
              49.443268
            ],
            [
              1.6733,
              49.442751
            ],
            [
              1.681392,
              49.443268
            ],
            [
              1.75401,
              49.455988
            ],
            [
              1.761791,
              49.457522
            ],
            [
              1.768961,
              49.460012
            ],
            [
              1.775247,
              49.463364
            ],
            [
              1.780405,
              49.467448
            ],
            [
              1.784238,
              49.472107
            ],
            [
              1.786598,
              49.477162
            ],
            [
              1.787395,
              49.48242
            ],
            [
              1.786598,
              49.487678
            ],
            [
              1.784238,
              49.492733
            ],
            [
              1.780405,
              49.497392
            ],
            [
              1.775247,
              49.501476
            ],
            [
              1.768961,
              49.504828
            ],
            [
              1.761791,
              49.507318
            ],
            [
              1.75401,
              49.508852
            ],
            [
              1.745918,
              49.509369
            ],
            [
              1.7247,
              49.508349
            ],
            [
              1.716608,
              49.507832
            ],
            [
              1.708827,
              49.506298
            ],
            [
              1.657427,
              49.494598
            ],
            [
              1.650257,
              49.492108
            ],
            [
              1.643971,
              49.488756
            ],
            [
              1.638813,
              49.484672
            ],
            [
              1.63498,
              49.480013
            ],
            [
              1.63262,
              49.474958
            ],
            [
              1.631823,
              49.4697
            ]
          ]
        ]
      }
    },
    {
      "type": "Feature",
      "id": "gournay_la_ferte_gaillefontaine_frontier_corridor",
      "properties": {
        "id": "gournay_la_ferte_gaillefontaine_frontier_corridor",
        "name": "Gournay-La Ferte-Gaillefontaine frontier corridor",
        "feature_type": "frontier_corridor",
        "display_group": "direct_gournay_frontier_corridor",
        "display_default": true,
        "certainty": "low-medium",
        "historical_basis": "Direct fortress / landholding corridor joining the ancestral seat at Gournay, the La Ferte cadet-line locality, and Gaillefontaine from the Orderic triad; Sigy and Fry represent related ecclesiastical endowment geography.",
        "interpretation_note": "Interpretive corridor only, not a continuous surveyed landholding boundary.",
        "source_urls": [
          "research/places/gournay-en-bray.md",
          "research/places/la-ferte-en-bray.md",
          "research/places/gaillefontaine.md"
        ],
        "buffer_km": 5,
        "source_iterations": [
          "v1",
          "v2",
          "v3",
          "v4",
          "v5"
        ],
        "style": {
          "color": "#8a4b1e",
          "weight": 2,
          "opacity": 0.68,
          "fillColor": "#c58a2b",
          "fillOpacity": 0.11
        }
      },
      "geometry": {
        "type": "Polygon",
        "coordinates": [
          [
            [
              1.457845,
              49.57795
            ],
            [
              1.459175,
              49.569187
            ],
            [
              1.463117,
              49.560762
            ],
            [
              1.469517,
              49.552996
            ],
            [
              1.47813,
              49.54619
            ],
            [
              1.488626,
              49.540604
            ],
            [
              1.688825,
              49.445802
            ],
            [
              1.700799,
              49.441651
            ],
            [
              1.713791,
              49.439095
            ],
            [
              1.727303,
              49.438232
            ],
            [
              1.740815,
              49.439095
            ],
            [
              1.753807,
              49.441651
            ],
            [
              1.765781,
              49.445802
            ],
            [
              1.776277,
              49.451388
            ],
            [
              1.78489,
              49.458194
            ],
            [
              1.79129,
              49.46596
            ],
            [
              1.795232,
              49.474385
            ],
            [
              1.796562,
              49.483148
            ],
            [
              1.795232,
              49.491911
            ],
            [
              1.79129,
              49.500336
            ],
            [
              1.689882,
              49.667666
            ],
            [
              1.683482,
              49.675432
            ],
            [
              1.674869,
              49.682238
            ],
            [
              1.664373,
              49.687824
            ],
            [
              1.652399,
              49.691975
            ],
            [
              1.639407,
              49.69453
            ],
            [
              1.625895,
              49.695393
            ],
            [
              1.612383,
              49.69453
            ],
            [
              1.59939,
              49.691975
            ],
            [
              1.587416,
              49.687824
            ],
            [
              1.576921,
              49.682238
            ],
            [
              1.47813,
              49.60971
            ],
            [
              1.469517,
              49.602904
            ],
            [
              1.463117,
              49.595138
            ],
            [
              1.459175,
              49.586713
            ],
            [
              1.457845,
              49.57795
            ]
          ]
        ]
      }
    },
    {
      "type": "Feature",
      "id": "la_ferte_sigy_fry_ecclesiastical_spur",
      "properties": {
        "id": "la_ferte_sigy_fry_ecclesiastical_spur",
        "name": "La Ferte-Sigy-Fry ecclesiastical spur",
        "feature_type": "ecclesiastical_spur_buffer",
        "display_group": "direct_gournay_frontier_corridor",
        "display_default": true,
        "certainty": "low-medium",
        "historical_basis": "La Ferte foundation and later Sigy/Fry ecclesiastical geography identify a cadet-line church and priory network adjoining the direct frontier corridor.",
        "interpretation_note": "Ecclesiastical/endowment spur only; do not read as a secular jurisdictional boundary.",
        "source_urls": [
          "https://books.openedition.org/pur/49267",
          "research/places/sigy-normandy.md",
          "research/places/fry-eglise-saint-martin.md"
        ],
        "buffer_km": 2.5,
        "source_iterations": [
          "v1",
          "v2",
          "v3",
          "v4",
          "v5"
        ],
        "style": {
          "color": "#8a4b1e",
          "weight": 2,
          "opacity": 0.68,
          "fillColor": "#c58a2b",
          "fillOpacity": 0.07,
          "dashArray": "5 4"
        }
      },
      "geometry": {
        "type": "Polygon",
        "coordinates": [
          [
            [
              1.456773,
              49.547222
            ],
            [
              1.457438,
              49.542841
            ],
            [
              1.459408,
              49.538628
            ],
            [
              1.462606,
              49.534745
            ],
            [
              1.466911,
              49.531342
            ],
            [
              1.472157,
              49.528549
            ],
            [
              1.507182,
              49.511696
            ],
            [
              1.513167,
              49.509621
            ],
            [
              1.519661,
              49.508343
            ],
            [
              1.526414,
              49.507911
            ],
            [
              1.533167,
              49.508343
            ],
            [
              1.539661,
              49.509621
            ],
            [
              1.545646,
              49.511696
            ],
            [
              1.550892,
              49.514489
            ],
            [
              1.555197,
              49.517892
            ],
            [
              1.558395,
              49.521775
            ],
            [
              1.560365,
              49.525988
            ],
            [
              1.56103,
              49.530369
            ],
            [
              1.56172,
              49.57795
            ],
            [
              1.561055,
              49.582331
            ],
            [
              1.559085,
              49.586544
            ],
            [
              1.555887,
              49.590427
            ],
            [
              1.551582,
              49.59383
            ],
            [
              1.546336,
              49.596623
            ],
            [
              1.540351,
              49.598698
            ],
            [
              1.533857,
              49.599976
            ],
            [
              1.527104,
              49.600408
            ],
            [
              1.520351,
              49.599976
            ],
            [
              1.513857,
              49.598698
            ],
            [
              1.507872,
              49.596623
            ],
            [
              1.502626,
              49.59383
            ],
            [
              1.498321,
              49.590427
            ],
            [
              1.462606,
              49.559699
            ],
            [
              1.459408,
              49.555816
            ],
            [
              1.457438,
              49.551603
            ],
            [
              1.456773,
              49.547222
            ]
          ]
        ]
      }
    },
    {
      "type": "Feature",
      "id": "gaillefontaine_castle_motte_buffer",
      "properties": {
        "id": "gaillefontaine_castle_motte_buffer",
        "name": "Gaillefontaine castle / motte buffer",
        "feature_type": "castle_buffer",
        "display_group": "direct_gournay_frontier_corridor",
        "display_default": true,
        "certainty": "medium-high",
        "historical_basis": "Orderic triad plus Gaillefontaine official history tying Gaillefontaine to Gournay and La Ferte, describing the fortress, visible motte, and 1472 destruction.",
        "interpretation_note": "Castle/motte anchor buffer. It is not merged into the northern context layer.",
        "source_urls": [
          "https://www.mairiegaillefontaine.fr/pages/decouvrir-et-bouger/histoire/historique.html",
          "https://www.plan-du-patrimoine.fr/monument-historique/76/gaillefontaine/domaine-de-gaillefontaine/PA00100670/"
        ],
        "buffer_km": 4,
        "source_iterations": [
          "v1",
          "v2",
          "v3",
          "v4",
          "v5"
        ],
        "style": {
          "color": "#8a4b1e",
          "weight": 2,
          "opacity": 0.68,
          "fillColor": "#c58a2b",
          "fillOpacity": 0.11
        },
        "survival_note": "Motte remains visible and wooded; fortress itself destroyed/dismantled."
      },
      "geometry": {
        "type": "Polygon",
        "coordinates": [
          [
            [
              1.681393,
              49.650478
            ],
            [
              1.680919,
              49.655168
            ],
            [
              1.679502,
              49.659778
            ],
            [
              1.677169,
              49.664229
            ],
            [
              1.673958,
              49.668444
            ],
            [
              1.669925,
              49.672352
            ],
            [
              1.665138,
              49.675886
            ],
            [
              1.65968,
              49.678985
            ],
            [
              1.653644,
              49.681596
            ],
            [
              1.647133,
              49.683675
            ],
            [
              1.640259,
              49.685186
            ],
            [
              1.633139,
              49.686103
            ],
            [
              1.625895,
              49.68641
            ],
            [
              1.618651,
              49.686103
            ],
            [
              1.611531,
              49.685186
            ],
            [
              1.604657,
              49.683675
            ],
            [
              1.598146,
              49.681596
            ],
            [
              1.59211,
              49.678985
            ],
            [
              1.586652,
              49.675886
            ],
            [
              1.581865,
              49.672352
            ],
            [
              1.577832,
              49.668444
            ],
            [
              1.574621,
              49.664229
            ],
            [
              1.572287,
              49.659778
            ],
            [
              1.570871,
              49.655168
            ],
            [
              1.570396,
              49.650478
            ],
            [
              1.570871,
              49.645788
            ],
            [
              1.572287,
              49.641178
            ],
            [
              1.574621,
              49.636727
            ],
            [
              1.577832,
              49.632512
            ],
            [
              1.581865,
              49.628604
            ],
            [
              1.586652,
              49.62507
            ],
            [
              1.59211,
              49.621971
            ],
            [
              1.598146,
              49.61936
            ],
            [
              1.604657,
              49.617281
            ],
            [
              1.611531,
              49.61577
            ],
            [
              1.618651,
              49.614853
            ],
            [
              1.625895,
              49.614545
            ],
            [
              1.633139,
              49.614853
            ],
            [
              1.640259,
              49.61577
            ],
            [
              1.647133,
              49.617281
            ],
            [
              1.653644,
              49.61936
            ],
            [
              1.65968,
              49.621971
            ],
            [
              1.665138,
              49.62507
            ],
            [
              1.669925,
              49.628604
            ],
            [
              1.673958,
              49.632512
            ],
            [
              1.677169,
              49.636727
            ],
            [
              1.679502,
              49.641178
            ],
            [
              1.680919,
              49.645788
            ],
            [
              1.681393,
              49.650478
            ]
          ]
        ]
      }
    },
    {
      "type": "Feature",
      "id": "northern_gournay_honor_context_corridor",
      "properties": {
        "id": "northern_gournay_honor_context_corridor",
        "name": "Northern Gournay-honor context: Gaillefontaine / Haucourt / Criquiers",
        "feature_type": "context_corridor",
        "display_group": "northern_gournay_honor_context",
        "display_default": true,
        "certainty": "low-medium",
        "historical_basis": "Bauduin places the Haucourt lineage on lands principally dependent on the honor of Gournay; Haucourt fief depended on Gaillefontaine; Gaillefontaine official history ties fortress and motte to Gournay and La Ferte.",
        "interpretation_note": "Context layer for Gournay honor dependencies and later frontier settlement, not a direct direct-line landholding polygon.",
        "source_urls": [
          "https://shs.cairn.info/revue-histoire-et-societes-rurales-2001-1-page-131?lang=fr",
          "https://www.mairiegaillefontaine.fr/pages/decouvrir-et-bouger/histoire/historique.html",
          "https://www.archivesdepartementales76.net/archive/catalogue/communes76/criquiers/n%3A168"
        ],
        "buffer_km": 5,
        "source_iterations": [
          "v1",
          "v2",
          "v3",
          "v4",
          "v5"
        ],
        "style": {
          "color": "#446b58",
          "weight": 2,
          "opacity": 0.5,
          "fillColor": "#6d9a81",
          "fillOpacity": 0.06,
          "dashArray": "6 5"
        }
      },
      "geometry": {
        "type": "Polygon",
        "coordinates": [
          [
            [
              1.556519,
              49.6505
            ],
            [
              1.557852,
              49.641737
            ],
            [
              1.561801,
              49.633312
            ],
            [
              1.568212,
              49.625546
            ],
            [
              1.57684,
              49.61874
            ],
            [
              1.587354,
              49.613154
            ],
            [
              1.599349,
              49.609003
            ],
            [
              1.634049,
              49.599903
            ],
            [
              1.647065,
              49.597347
            ],
            [
              1.6606,
              49.596484
            ],
            [
              1.674135,
              49.597347
            ],
            [
              1.687151,
              49.599903
            ],
            [
              1.699146,
              49.604054
            ],
            [
              1.70966,
              49.60964
            ],
            [
              1.75576,
              49.64354
            ],
            [
              1.764388,
              49.650346
            ],
            [
              1.770799,
              49.658112
            ],
            [
              1.774748,
              49.666537
            ],
            [
              1.776081,
              49.6753
            ],
            [
              1.774748,
              49.684063
            ],
            [
              1.770799,
              49.692488
            ],
            [
              1.764388,
              49.700254
            ],
            [
              1.75576,
              49.70706
            ],
            [
              1.745246,
              49.712646
            ],
            [
              1.733251,
              49.716797
            ],
            [
              1.720235,
              49.719353
            ],
            [
              1.7067,
              49.720216
            ],
            [
              1.693165,
              49.719353
            ],
            [
              1.680149,
              49.716797
            ],
            [
              1.599349,
              49.691997
            ],
            [
              1.587354,
              49.687846
            ],
            [
              1.57684,
              49.68226
            ],
            [
              1.568212,
              49.675454
            ],
            [
              1.561801,
              49.667688
            ],
            [
              1.557852,
              49.659263
            ],
            [
              1.556519,
              49.6505
            ]
          ]
        ]
      }
    },
    {
      "type": "Feature",
      "id": "g33_bec_gournay_endowment_cluster_envelope",
      "properties": {
        "id": "g33_bec_gournay_endowment_cluster_envelope",
        "name": "G33 Bec / Gournay endowment cluster envelope",
        "feature_type": "endowment_context_envelope",
        "display_group": "g33_bec_endowment_cluster",
        "display_default": true,
        "certainty": "low-medium",
        "historical_basis": "Hugh III / Basilia Bec donation geography includes churches, tithes, houses, milling rights, and other property/revenue geography across Gournay, Gaillefontaine, La Ferte, Massy/Morimont, Bremontier/Merval, Elbeuf, Laudencourt, and related places.",
        "interpretation_note": "Property/revenue/endowment geography. Keep visually distinct from direct landholding and 24-village layers.",
        "source_urls": [
          "https://www.archivesdepartementales76.net/archive/catalogue/communes76/massy/n%3A168",
          "https://www.archivesdepartementales76.net/archive/catalogue/communes76/esclavelles",
          "https://tourismedes4rivieresenbray.com/elbeuf-en-bray/",
          "https://www.bremontier-merval.fr/vie-culturelle/histoire",
          "research/places/g33-bec-gournay-endowment-cluster.md"
        ],
        "buffer_km": "variable",
        "source_iterations": [
          "v1",
          "v2",
          "v3",
          "v4",
          "v5"
        ],
        "style": {
          "color": "#7a5963",
          "weight": 2,
          "opacity": 0.52,
          "fillColor": "#b17b86",
          "fillOpacity": 0.065,
          "dashArray": "5 5"
        }
      },
      "geometry": {
        "type": "Polygon",
        "coordinates": [
          [
            [
              1.343609,
              49.69
            ],
            [
              1.344673,
              49.68299
            ],
            [
              1.347825,
              49.676249
            ],
            [
              1.352944,
              49.670037
            ],
            [
              1.568944,
              49.472037
            ],
            [
              1.575833,
              49.466592
            ],
            [
              1.584226,
              49.462123
            ],
            [
              1.593803,
              49.458803
            ],
            [
              1.604194,
              49.456758
            ],
            [
              1.716497,
              49.447906
            ],
            [
              1.727303,
              49.447216
            ],
            [
              1.745918,
              49.446488
            ],
            [
              1.756724,
              49.447178
            ],
            [
              1.767115,
              49.449223
            ],
            [
              1.776692,
              49.452543
            ],
            [
              1.785085,
              49.457012
            ],
            [
              1.791974,
              49.462457
            ],
            [
              1.797093,
              49.468669
            ],
            [
              1.800245,
              49.47541
            ],
            [
              1.801309,
              49.48242
            ],
            [
              1.800245,
              49.48943
            ],
            [
              1.797093,
              49.496171
            ],
            [
              1.677069,
              49.664229
            ],
            [
              1.671951,
              49.670441
            ],
            [
              1.665062,
              49.675886
            ],
            [
              1.656668,
              49.680355
            ],
            [
              1.647092,
              49.683675
            ],
            [
              1.636701,
              49.68572
            ],
            [
              1.409806,
              49.725242
            ],
            [
              1.399,
              49.725932
            ],
            [
              1.388194,
              49.725242
            ],
            [
              1.377803,
              49.723197
            ],
            [
              1.368226,
              49.719877
            ],
            [
              1.359833,
              49.715408
            ],
            [
              1.352944,
              49.709963
            ],
            [
              1.347825,
              49.703751
            ],
            [
              1.344673,
              49.69701
            ],
            [
              1.343609,
              49.69
            ]
          ]
        ]
      }
    },
    {
      "type": "Feature",
      "id": "massy_morimont_bec_endowment_candidate",
      "properties": {
        "id": "massy_morimont_bec_endowment_candidate",
        "name": "Massy / Morimont Bec-endowment candidate",
        "feature_type": "candidate_endowment_buffer",
        "display_group": "g33_bec_endowment_cluster",
        "display_default": true,
        "certainty": "medium-low",
        "historical_basis": "Archives 76 Massy topography includes medieval Gurney-linked Massy forms; related research indicates Hugh III benefactions to Bec included the church of Massy.",
        "interpretation_note": "Use as a separate endowment-network overlay. Do not merge into the Conquets Hue de Gournay polygon.",
        "source_urls": [
          "https://www.archivesdepartementales76.net/archive/catalogue/communes76/massy/n%3A168",
          "https://www.archivesdepartementales76.net/archive/catalogue/communes76/esclavelles"
        ],
        "buffer_km": 3,
        "source_iterations": [
          "v1",
          "v2",
          "v3",
          "v4",
          "v5"
        ],
        "style": {
          "color": "#7a5963",
          "weight": 2,
          "opacity": 0.52,
          "fillColor": "#b17b86",
          "fillOpacity": 0.065,
          "dashArray": "5 5"
        }
      },
      "geometry": {
        "type": "Polygon",
        "coordinates": [
          [
            [
              1.440658,
              49.69
            ],
            [
              1.440301,
              49.693518
            ],
            [
              1.439238,
              49.696975
            ],
            [
              1.437487,
              49.700313
            ],
            [
              1.435077,
              49.703475
            ],
            [
              1.432049,
              49.706406
            ],
            [
              1.428456,
              49.709056
            ],
            [
              1.42436,
              49.71138
            ],
            [
              1.419829,
              49.713339
            ],
            [
              1.414942,
              49.714898
            ],
            [
              1.409782,
              49.716031
            ],
            [
              1.404437,
              49.716719
            ],
            [
              1.399,
              49.716949
            ],
            [
              1.393563,
              49.716719
            ],
            [
              1.388218,
              49.716031
            ],
            [
              1.383058,
              49.714898
            ],
            [
              1.378171,
              49.713339
            ],
            [
              1.37364,
              49.71138
            ],
            [
              1.369544,
              49.709056
            ],
            [
              1.365951,
              49.706406
            ],
            [
              1.362923,
              49.703475
            ],
            [
              1.360513,
              49.700313
            ],
            [
              1.358762,
              49.696975
            ],
            [
              1.357699,
              49.693518
            ],
            [
              1.357342,
              49.69
            ],
            [
              1.357699,
              49.686482
            ],
            [
              1.358762,
              49.683025
            ],
            [
              1.360513,
              49.679687
            ],
            [
              1.362923,
              49.676525
            ],
            [
              1.365951,
              49.673594
            ],
            [
              1.369544,
              49.670944
            ],
            [
              1.37364,
              49.66862
            ],
            [
              1.378171,
              49.666661
            ],
            [
              1.383058,
              49.665102
            ],
            [
              1.388218,
              49.663969
            ],
            [
              1.393563,
              49.663281
            ],
            [
              1.399,
              49.663051
            ],
            [
              1.404437,
              49.663281
            ],
            [
              1.409782,
              49.663969
            ],
            [
              1.414942,
              49.665102
            ],
            [
              1.419829,
              49.666661
            ],
            [
              1.42436,
              49.66862
            ],
            [
              1.428456,
              49.670944
            ],
            [
              1.432049,
              49.673594
            ],
            [
              1.435077,
              49.676525
            ],
            [
              1.437487,
              49.679687
            ],
            [
              1.439238,
              49.683025
            ],
            [
              1.440301,
              49.686482
            ],
            [
              1.440658,
              49.69
            ]
          ]
        ]
      }
    },
    {
      "type": "Feature",
      "id": "gournay_later_institutional_layer_bellozanne_beaubec",
      "properties": {
        "id": "gournay_later_institutional_layer_bellozanne_beaubec",
        "name": "Later Gournay institutional geography: Bellozanne / Beaubec / Elbeuf / Bremontier-Merval",
        "feature_type": "institutional_context_envelope",
        "display_group": "later_gournay_institutional",
        "display_default": true,
        "certainty": "low-medium",
        "historical_basis": "Bellozanne and Beaubec are later Gournay institutional foundations / patronage sites; Elbeuf-en-Bray and Bremontier-Merval are linked to Bellozanne patronage and administration.",
        "interpretation_note": "Optional institutional / senior-collateral layer. Do not merge into direct G30-G37 holdings or the Conquets polygon.",
        "source_urls": [
          "https://fr.wikipedia.org/wiki/Abbaye_Notre-Dame_de_Bellozanne",
          "https://tourismedes4rivieresenbray.com/elbeuf-en-bray/",
          "https://fr.wikipedia.org/wiki/Beaubec-la-Rosi%C3%A8re",
          "https://www.bremontier-merval.fr/vie-culturelle/histoire"
        ],
        "buffer_km": "variable",
        "source_iterations": [
          "v1",
          "v2",
          "v3",
          "v4",
          "v5"
        ],
        "style": {
          "color": "#5b6f78",
          "weight": 2,
          "opacity": 0.48,
          "fillColor": "#8ba5ad",
          "fillOpacity": 0.05,
          "dashArray": "4 6"
        },
        "future_default_after_review": false
      },
      "geometry": {
        "type": "Polygon",
        "coordinates": [
          [
            [
              1.464553,
              49.66
            ],
            [
              1.465618,
              49.65299
            ],
            [
              1.468773,
              49.646249
            ],
            [
              1.548773,
              49.496249
            ],
            [
              1.553897,
              49.490037
            ],
            [
              1.568897,
              49.472037
            ],
            [
              1.575793,
              49.466592
            ],
            [
              1.584195,
              49.462123
            ],
            [
              1.593781,
              49.458803
            ],
            [
              1.604183,
              49.456758
            ],
            [
              1.615,
              49.456068
            ],
            [
              1.625817,
              49.456758
            ],
            [
              1.636219,
              49.458803
            ],
            [
              1.645805,
              49.462123
            ],
            [
              1.654207,
              49.466592
            ],
            [
              1.661103,
              49.472037
            ],
            [
              1.666227,
              49.478249
            ],
            [
              1.669382,
              49.48499
            ],
            [
              1.670447,
              49.492
            ],
            [
              1.669382,
              49.49901
            ],
            [
              1.594382,
              49.76701
            ],
            [
              1.591227,
              49.773751
            ],
            [
              1.586103,
              49.779963
            ],
            [
              1.579207,
              49.785408
            ],
            [
              1.570805,
              49.789877
            ],
            [
              1.561219,
              49.793197
            ],
            [
              1.550817,
              49.795242
            ],
            [
              1.54,
              49.795932
            ],
            [
              1.529183,
              49.795242
            ],
            [
              1.518781,
              49.793197
            ],
            [
              1.509195,
              49.789877
            ],
            [
              1.500793,
              49.785408
            ],
            [
              1.493897,
              49.779963
            ],
            [
              1.488773,
              49.773751
            ],
            [
              1.485618,
              49.76701
            ],
            [
              1.465618,
              49.66701
            ],
            [
              1.464553,
              49.66
            ]
          ]
        ]
      }
    },
    {
      "type": "Feature",
      "id": "southern_boundary_context_neuf_marche_lyons",
      "properties": {
        "id": "southern_boundary_context_neuf_marche_lyons",
        "name": "Southern boundary context: Neuf-Marche / Lyons / Saint-Germer-de-Fly",
        "feature_type": "boundary_context",
        "display_group": "southern_boundary_context",
        "display_default": false,
        "certainty": "medium",
        "historical_basis": "Outward searches south/southeast of Gournay show important neighboring jurisdictions and abbey geography, but no strong direct Gournay holding evidence in this pass.",
        "interpretation_note": "Negative-control / boundary layer to prevent over-expanding the Gournay overlay southward.",
        "source_urls": [
          "https://books.openedition.org/purh/20171",
          "https://www.larousse.fr/encyclopedie/ville/Saint-Germer-de-Fly_60850/142355",
          "https://www.banatic.interieur.gouv.fr/commune/60592-Saint-Pierre-es-Champs",
          "https://www.banatic.interieur.gouv.fr/commune/60516-Puiseux-en-Bray"
        ],
        "buffer_km": "variable",
        "source_iterations": [
          "v1",
          "v2",
          "v3",
          "v4",
          "v5"
        ],
        "style": {
          "color": "#6b6670",
          "weight": 2,
          "opacity": 0.48,
          "fillColor": "#aaa6af",
          "fillOpacity": 0.035,
          "dashArray": "2 7"
        },
        "future_default_after_review": false
      },
      "geometry": {
        "type": "Polygon",
        "coordinates": [
          [
            [
              1.530943,
              49.405
            ],
            [
              1.53227,
              49.396237
            ],
            [
              1.536199,
              49.387812
            ],
            [
              1.542581,
              49.380046
            ],
            [
              1.551169,
              49.37324
            ],
            [
              1.561634,
              49.367654
            ],
            [
              1.573573,
              49.363503
            ],
            [
              1.586528,
              49.360947
            ],
            [
              1.6,
              49.360084
            ],
            [
              1.613472,
              49.360947
            ],
            [
              1.913472,
              49.390947
            ],
            [
              1.926427,
              49.393503
            ],
            [
              1.938366,
              49.397654
            ],
            [
              1.948831,
              49.40324
            ],
            [
              1.957419,
              49.410046
            ],
            [
              1.963801,
              49.417812
            ],
            [
              1.96773,
              49.426237
            ],
            [
              1.969057,
              49.435
            ],
            [
              1.96773,
              49.443763
            ],
            [
              1.963801,
              49.452188
            ],
            [
              1.957419,
              49.459954
            ],
            [
              1.948831,
              49.46676
            ],
            [
              1.938366,
              49.472346
            ],
            [
              1.926427,
              49.476497
            ],
            [
              1.913472,
              49.479053
            ],
            [
              1.793472,
              49.489053
            ],
            [
              1.78,
              49.489916
            ],
            [
              1.766528,
              49.489053
            ],
            [
              1.753573,
              49.486497
            ],
            [
              1.573573,
              49.446497
            ],
            [
              1.561634,
              49.442346
            ],
            [
              1.551169,
              49.43676
            ],
            [
              1.542581,
              49.429954
            ],
            [
              1.536199,
              49.422188
            ],
            [
              1.53227,
              49.413763
            ],
            [
              1.530943,
              49.405
            ]
          ]
        ]
      }
    }
  ]
}
